GLOBALSTAR M075         
1 37192U 10054E   25337.87920869 -.00000090  00000+0  76810-4 0  9996
2 37192  51.9966  24.8607 0000405 114.6450  56.5466 12.62270063697279
GLOBALSTAR M073         
1 37193U 10054F   25337.64207546 -.00000097  00000+0  35004-4 0  9999
2 37193  52.0072 299.5350 0000526  27.9136 143.1687 12.62264775699236
GLOBALSTAR M083         
1 37739U 11033A   25337.95169895 -.00000066  00000+0  20961-3 0  9992
2 37739  51.9854 247.0884 0000713  52.0343  28.6522 12.62265213668290
GLOBALSTAR M088         
1 37740U 11033B   25337.68782986 -.00000087  00000+0  95864-4 0  9994
2 37740  52.0186 153.8448 0001127  98.7976 341.3670 12.62270878663805
GLOBALSTAR M091         
1 37741U 11033C   25337.70606602 -.00000103  00000+0  24910-5 0  9992
2 37741  51.9984 117.0436 0000872 119.2828 343.2635 12.62262317664598
GLOBALSTAR M085         
1 37742U 11033D   25337.51468847 -.00000107  00000+0 -15643-4 0  9996
2 37742  52.0140  68.7468 0000590 141.4149 231.6875 12.62267018665086
GLOBALSTAR M081         
1 37743U 11033E   25337.56130487 -.00000119  00000+0 -86001-4 0  9997
2 37743  51.9967  71.2623 0000527 120.3184 345.1697 12.62270569665234
GLOBALSTAR M089         
1 37744U 11033F   25337.85282958 -.00000085  00000+0  10474-3 0  9992
2 37744  51.9953  24.5714 0000555  84.0756  87.6388 12.62261793666116
